
    {
      "objectName": "STARLINK-6304",
      "objectId": "2023-078M",
      "noradId": 56778,
      "epochUtc": "2026-03-16T14:13:28.058304Z",
      "meanMotionRevPerDay": 14.98327383,
      "eccentricity": 0.0002886,
      "inclinationDeg": 69.9988,
      "raanDeg": 307.208,
      "argPerigeeDeg": 268.859,
      "meanAnomalyDeg": 91.2239,
      "bstar": 0.000023983,
      "meanMotionDot": 0.00000193,
      "meanMotionDdot": 0,
      "elementSetNo": 999,
      "revAtEpoch": 15420
    },
    {
      "objectName": "STARLINK-5963",
      "objectId": "2023-078P",
      "noradId": 56780,
      "epochUtc": "2026-03-16T21:14:35.767680Z",
      "meanMotionRevPerDay": 14.98328323,
      "eccentricity": 0.0002785,
      "inclinationDeg": 69.9992,
      "raanDeg": 326.114,
      "argPerigeeDeg": 269.3077,
      "meanAnomalyDeg": 90.7763,
      "bstar": -0.000016701,
      "meanMotionDot": -0.00000292,
      "meanMotionDdot": 0,
      "elementSetNo": 999,
      "revAtEpoch": 15376
    },
    {
      "objectName": "STARLINK-5989",
      "objectId": "2023-078Q",
      "noradId": 56781,
      "epochUtc": "2026-03-16T20:50:21.075072Z",
      "meanMotionRevPerDay": 14.98321375,
      "eccentricity": 0.0002559,
      "inclinationDeg": 69.9994,
      "raanDeg": 326.4329,
      "argPerigeeDeg": 274.0606,
      "meanAnomalyDeg": 86.0261,
      "bstar": 0.000030929,
      "meanMotionDot": 0.00000276,
      "meanMotionDdot": 0,
      "elementSetNo": 999,
      "revAtEpoch": 15375
    },
    {
      "objectName": "STARLINK-6357",
      "objectId": "2023-078S",
      "noradId": 56783,
      "epochUtc": "2026-03-16T20:19:58.185408Z",
      "meanMotionRevPerDay": 14.98327474,
      "eccentricity": 0.0002999,
      "inclinationDeg": 69.9984,
      "raanDeg": 306.4909,
      "argPerigeeDeg": 268.8408,
      "meanAnomalyDeg": 91.2407,
      "bstar": 0.0000053117,
      "meanMotionDot": -3e-7,
      "meanMotionDdot": 0,
      "elementSetNo": 999,
      "revAtEpoch": 15424
    },
    {
      "objectName": "STARLINK-6354",
      "objectId": "2023-078T",
      "noradId": 56784,
      "epochUtc": "2026-03-16T20:25:59.428128Z",
      "meanMotionRevPerDay": 14.9832606,
      "eccentricity": 0.0002593,
      "inclinationDeg": 69.999,
      "raanDeg": 306.5051,
      "argPerigeeDeg": 260.5563,
      "meanAnomalyDeg": 99.5303,
      "bstar": -0.00010655,
      "meanMotionDot": -0.00001364,
      "meanMotionDdot": 0,
      "elementSetNo": 999,
      "revAtEpoch": 15424
    },
    {
      "objectName": "STARLINK-5931",
      "objectId": "2023-078U",
      "noradId": 56785,
      "epochUtc": "2026-03-16T21:02:22.354368Z",
      "meanMotionRevPerDay": 14.98324292,
      "eccentricity": 0.0003026,
      "inclinationDeg": 69.9994,
      "raanDeg": 326.4639,
      "argPerigeeDeg": 270.1488,
      "meanAnomalyDeg": 89.9324,
      "bstar": -0.0000054675,
      "meanMotionDot": -0.00000158,
      "meanMotionDdot": 0,
      "elementSetNo": 999,
      "revAtEpoch": 15444
    },
    {
      "objectName": "STARLINK-6336",
      "objectId": "2023-078X",
      "noradId": 56788,
      "epochUtc": "2026-03-16T20:07:57.432288Z",
      "meanMotionRevPerDay": 14.98324263,
      "eccentricity": 0.0002907,
      "inclinationDeg": 69.9986,
      "raanDeg": 306.4619,
      "argPerigeeDeg": 268.9715,
      "meanAnomalyDeg": 91.1111,
      "bstar": -0.000040972,
      "meanMotionDot": -0.00000582,
      "meanMotionDdot": 0,
      "elementSetNo": 999,
      "revAtEpoch": 15424
    },
    {
      "objectName": "STARLINK-5977",
      "objectId": "2023-078AA",
      "noradId": 56791,
      "epochUtc": "2026-03-16T20:08:16.404864Z",
      "meanMotionRevPerDay": 14.98326858,
      "eccentricity": 0.0003182,
      "inclinationDeg": 69.9996,
      "raanDeg": 326.333,
      "argPerigeeDeg": 267.1084,
      "meanAnomalyDeg": 92.9711,
      "bstar": 0.0000022908,
      "meanMotionDot": -6.6e-7,
      "meanMotionDdot": 0,
      "elementSetNo": 999,
      "revAtEpoch": 15375
    },
    {
      "objectName": "STARLINK-6052",
      "objectId": "2023-078AC",
      "noradId": 56793,
      "epochUtc": "2026-03-16T20:32:18.576384Z",
      "meanMotionRevPerDay": 14.98325694,
      "eccentricity": 0.0002359,
      "inclinationDeg": 69.9996,
      "raanDeg": 326.3875,
      "argPerigeeDeg": 275.6284,
      "meanAnomalyDeg": 84.4606,
      "bstar": 0.00027002,
      "meanMotionDot": 0.0000313,
      "meanMotionDdot": 0,
      "elementSetNo": 999,
      "revAtEpoch": 15375
    },
    {
      "objectName": "STARLINK-6060",
      "objectId": "2023-078AD",
      "noradId": 56794,
      "epochUtc": "2026-03-16T21:32:04.138368Z",
      "meanMotionRevPerDay": 14.98324048,
      "eccentricity": 0.0003007,
      "inclinationDeg": 69.9985,
      "raanDeg": 306.2627,
      "argPerigeeDeg": 264.4532,
      "meanAnomalyDeg": 95.6284,
      "bstar": -0.000097367,
      "meanMotionDot": -0.00001254,
      "meanMotionDdot": 0,
      "elementSetNo": 999,
      "revAtEpoch": 15425
    },
    {
      "objectName": "STARLINK-5953",
      "objectId": "2023-078AJ",
      "noradId": 56799,
      "epochUtc": "2026-03-16T20:38:19.340448Z",
      "meanMotionRevPerDay": 14.98334983,
      "eccentricity": 0.0002317,
      "inclinationDeg": 69.9995,
      "raanDeg": 326.3983,
      "argPerigeeDeg": 267.2253,
      "meanAnomalyDeg": 92.8641,
      "bstar": -0.000011487,
      "meanMotionDot": -0.0000023,
      "meanMotionDdot": 0,
      "elementSetNo": 999,
      "revAtEpoch": 15375
    },
    {
      "objectName": "STARLINK-6070",
      "objectId": "2023-078AM",
      "noradId": 56802,
      "epochUtc": "2026-03-16T20:00:01.999008Z",
      "meanMotionRevPerDay": 15.4184708,
      "eccentricity": 0.0004056,
      "inclinationDeg": 70.0009,
      "raanDeg": 303.4137,
      "argPerigeeDeg": 283.7944,
      "meanAnomalyDeg": 301.3174,
      "bstar": 0.029066,
      "meanMotionDot": 0.01356651,
      "meanMotionDdot": 0,
      "elementSetNo": 999,
      "revAtEpoch": 581
    },
    {
      "objectName": "STARLINK-6069",
      "objectId": "2023-078AP",
      "noradId": 56804,
      "epochUtc": "2026-03-16T21:20:02.038272Z",
      "meanMotionRevPerDay": 14.98331637,
      "eccentricity": 0.0002789,
      "inclinationDeg": 69.9985,
      "raanDeg": 306.2337,
      "argPerigeeDeg": 269.614,
      "meanAnomalyDeg": 90.4699,
      "bstar": 0.000017205,
      "meanMotionDot": 0.00000112,
      "meanMotionDdot": 0,
      "elementSetNo": 999,
      "revAtEpoch": 15492
    }