STARLINK-6304           
1 56778U 23078M   26075.59268586  .00000193  00000+0  23983-4 0  9993
2 56778  69.9988 307.2080 0002886 268.8590  91.2239 14.98327383154202
STARLINK-5963           
1 56780U 23078P   26075.88513620 -.00000292  00000+0 -16701-4 0  9992
2 56780  69.9992 326.1140 0002785 269.3077  90.7763 14.98328323153762
STARLINK-5989           
1 56781U 23078Q   26075.86829948  .00000276  00000+0  30929-4 0  9992
2 56781  69.9994 326.4329 0002559 274.0606  86.0261 14.98321375153757
STARLINK-6357           
1 56783U 23078S   26075.84720122 -.00000030  00000+0  53117-5 0  9990
2 56783  69.9984 306.4909 0002999 268.8408  91.2407 14.98327474154240
STARLINK-6354           
1 56784U 23078T   26075.85138227 -.00001364  00000+0 -10655-3 0  9991
2 56784  69.9990 306.5051 0002593 260.5563  99.5303 14.98326060154244
STARLINK-5931           
1 56785U 23078U   26075.87664762 -.00000158  00000+0 -54675-5 0  9994
2 56785  69.9994 326.4639 0003026 270.1488  89.9324 14.98324292154440
STARLINK-6336           
1 56788U 23078X   26075.83885917 -.00000582  00000+0 -40972-4 0  9995
2 56788  69.9986 306.4619 0002907 268.9715  91.1111 14.98324263154240
STARLINK-5977           
1 56791U 23078AA  26075.83907876 -.00000066  00000+0  22908-5 0  9994
2 56791  69.9996 326.3330 0003182 267.1084  92.9711 14.98326858153754
STARLINK-6052           
1 56793U 23078AC  26075.85577056  .00003130  00000+0  27002-3 0  9993
2 56793  69.9996 326.3875 0002359 275.6284  84.4606 14.98325694153757
STARLINK-6060           
1 56794U 23078AD  26075.89727012 -.00001254  00000+0 -97367-4 0  9996
2 56794  69.9985 306.2627 0003007 264.4532  95.6284 14.98324048154255
STARLINK-5953           
1 56799U 23078AJ  26075.85994607 -.00000230  00000+0 -11487-4 0  9995
2 56799  69.9995 326.3983 0002317 267.2253  92.8641 14.98334983153752
STARLINK-6070           
1 56802U 23078AM  26075.83335647  .01356651  00000+0  29066-1 0  9990
2 56802  70.0009 303.4137 0004056 283.7944 301.3174 15.41847080  5813
STARLINK-6069           
1 56804U 23078AP  26075.88891248  .00000112  00000+0  17205-4 0  9993
2 56804  69.9985 306.2337 0002789 269.6140  90.4699 14.98331637154922
